<?xml version="1.0" encoding="UTF-8"?>
<gpx xmlns="http://www.topografix.com/GPX/1/1" xmlns:xsi="http://www.w3.org/2001/XMLSchema-instance" xsi:schemaLocation="http://www.topografix.com/GPX/1/1 http://www.topografix.com/GPX/1/1/gpx.xsd" version="1.1" creator="overpass-turbo"><metadata><desc>Filtered OSM data converted to GPX by overpass turbo</desc><copyright author="The data included in this document is from www.openstreetmap.org. The data is made available under ODbL."/><time>2026-06-20T13:01:19Z</time></metadata><wpt lat="43.7372395" lon="7.423497"><name>node/21911886</name><desc>crossing=zebra
crossing:island=no
crossing_ref=zebra
highway=crossing</desc><link href="http://osm.org/browse/node/21911886"/></wpt><wpt lat="43.7379155" lon="7.4269003"><name>node/21912962</name><desc>crossing=marked
crossing:markings=zebra
crossing_ref=zebra
highway=crossing</desc><link href="http://osm.org/browse/node/21912962"/></wpt><wpt lat="43.7323963" lon="7.4230516"><name>node/25191609</name><desc>crossing=uncontrolled
crossing:island=no
crossing_ref=zebra
highway=crossing</desc><link href="http://osm.org/browse/node/25191609"/></wpt><wpt lat="43.7325554" lon="7.4224071"><name>Princesse Stéphanie</name><desc>bus=yes
name=Princesse Stéphanie
network=COMPAGNIE AUTOBUS MONACO
operator=COMPAGNIE AUTOBUS MONACO
public_transport=stop_position
source=BDOrtho IGN (2025-11-19)</desc><link href="http://osm.org/browse/node/25192215"/></wpt><wpt lat="43.7407531" lon="7.4291256"><name>node/25239177</name><desc>crossing=uncontrolled
crossing:island=no
crossing:markings=zebra
highway=crossing
kerb=lowered
supervised=no
tactile_paving=no</desc><link href="http://osm.org/browse/node/25239177"/></wpt><wpt lat="43.7410189" lon="7.4286333"><name>Citronniers</name><desc>bus=yes
name=Citronniers
public_transport=stop_position</desc><link href="http://osm.org/browse/node/25239179"/></wpt><wpt lat="43.7336006" lon="7.421693"><name>node/252377857</name><desc>crossing=uncontrolled
crossing_ref=zebra
highway=crossing</desc><link href="http://osm.org/browse/node/252377857"/></wpt><wpt lat="43.740058" lon="7.4276466"><name>node/272637895</name><desc>crossing=uncontrolled
crossing:island=no
crossing:markings=zebra
crossing_ref=zebra
highway=crossing</desc><link href="http://osm.org/browse/node/272637895"/></wpt><wpt lat="43.7399287" lon="7.4275148"><name>Place du Casino</name><desc>bus=yes
name=Place du Casino
public_transport=stop_position
ref:STTM=5
source=BDOrtho IGN (2025-11-17)
tourist_bus=yes</desc><link href="http://osm.org/browse/node/272637923"/></wpt><wpt lat="43.73674" lon="7.4221688"><name>node/917957146</name><desc>crossing=zebra
crossing:island=no
crossing:markings=zebra
crossing_ref=zebra
highway=crossing</desc><link href="http://osm.org/browse/node/917957146"/></wpt><wpt lat="43.7378674" lon="7.4264312"><name>node/918118157</name><desc>crossing=marked
crossing:markings=zebra
crossing_ref=zebra
highway=crossing</desc><link href="http://osm.org/browse/node/918118157"/></wpt><wpt lat="43.735402" lon="7.4212229"><name>node/1204288311</name><desc>crossing=uncontrolled
crossing_ref=zebra
highway=crossing</desc><link href="http://osm.org/browse/node/1204288311"/></wpt><wpt lat="43.7343821" lon="7.4213956"><name>node/1204288371</name><desc>crossing=uncontrolled
crossing_ref=zebra
highway=crossing</desc><link href="http://osm.org/browse/node/1204288371"/></wpt><wpt lat="43.7389813" lon="7.4277072"><name>node/1204288376</name><desc>crossing=zebra
crossing_ref=zebra
highway=crossing</desc><link href="http://osm.org/browse/node/1204288376"/></wpt><wpt lat="43.7394313" lon="7.4271787"><name>node/1204288436</name><desc>crossing=uncontrolled
crossing:markings=zebra
crossing_ref=zebra
highway=crossing</desc><link href="http://osm.org/browse/node/1204288436"/></wpt><wpt lat="43.7406434" lon="7.4293951"><name>Spélugues</name><desc>bus=yes
name=Spélugues
public_transport=stop_position</desc><link href="http://osm.org/browse/node/1685108323"/></wpt><wpt lat="43.7404191" lon="7.4296518"><name>Spélugues</name><desc>bus=yes
name=Spélugues
public_transport=stop_position</desc><link href="http://osm.org/browse/node/1720684301"/></wpt><wpt lat="43.7405242" lon="7.429517"><name>node/1720684307</name><desc>crossing=uncontrolled
crossing:island=no
crossing:markings=zebra
highway=crossing
kerb=lowered
supervised=no
tactile_paving=no</desc><link href="http://osm.org/browse/node/1720684307"/></wpt><wpt lat="43.7363543" lon="7.4213277"><name>node/1726583852</name><desc>crossing=uncontrolled
crossing:markings=zebra
crossing_ref=tiger
highway=crossing</desc><link href="http://osm.org/browse/node/1726583852"/></wpt><wpt lat="43.7403359" lon="7.4279255"><name>node/1737147155</name><desc>crossing=uncontrolled
crossing:island=no
crossing:markings=zebra
crossing_ref=zebra
highway=crossing</desc><link href="http://osm.org/browse/node/1737147155"/></wpt><wpt lat="43.7375256" lon="7.4251862"><name>node/1737366176</name><desc>crossing=zebra
crossing:island=no
crossing:markings=zebra
crossing_ref=zebra
highway=crossing</desc><link href="http://osm.org/browse/node/1737366176"/></wpt><wpt lat="43.7377526" lon="7.4258405"><name>node/1737366192</name><desc>crossing=zebra
disused:highway=crossing</desc><link href="http://osm.org/browse/node/1737366192"/></wpt><wpt lat="43.7338388" lon="7.4215941"><name>Stade Nautique</name><desc>bus=yes
check_date=2023-12-10
name=Stade Nautique
public_transport=stop_position
source=Bing Aerial Imagery (2023-12-10)</desc><link href="http://osm.org/browse/node/1770577831"/></wpt><wpt lat="43.7356156" lon="7.4212077"><name>Princesse Antoinette</name><desc>bus=yes
check_date=2023-12-10
name=Princesse Antoinette
public_transport=stop_position
source=Bing Aerial Imagery (2023-12-10)</desc><link href="http://osm.org/browse/node/1770577832"/></wpt><wpt lat="43.7374193" lon="7.4245725"><name>Ostende</name><desc>bus=yes
name=Ostende
public_transport=stop_position</desc><link href="http://osm.org/browse/node/2189614155"/></wpt><wpt lat="43.7343117" lon="7.4224101"><name>node/2241375226</name><desc>crossing=uncontrolled
crossing:markings=zebra
highway=crossing</desc><link href="http://osm.org/browse/node/2241375226"/></wpt><wpt lat="43.7350269" lon="7.4212652"><name>Depart Grand Prix de Monaco</name><desc>addr:country=MC
name=Depart Grand Prix de Monaco
name:de=Monaco Grand Prix Start- und Ziellinie
name:en=Monaco Grand Prix Start/Finish Line
name:fr=Depart Grand Prix de Monaco
name:pt=Linha de Largada e de Chegada do Grande Prémio do Mónaco
name:ru=Старт/финиш Гран-при Монако
raceway=start-finish
tourism=attraction
wheelchair=yes</desc><link href="http://osm.org/browse/node/4937755860"/></wpt><wpt lat="43.7409778" lon="7.4296871"><name>node/5466881416</name><desc>crossing=uncontrolled
crossing_ref=zebra
highway=crossing</desc><link href="http://osm.org/browse/node/5466881416"/></wpt><wpt lat="43.7402522" lon="7.4278392"><name>Place du Casino</name><desc>bus=yes
name=Place du Casino
public_transport=stop_position</desc><link href="http://osm.org/browse/node/6485591477"/></wpt><wpt lat="43.737802" lon="7.4280368"><name>Auditorium Rainier III</name><desc>bus=yes
check_date=2023-12-10
name=Auditorium Rainier III
public_transport=stop_position
source=Bing Aerial Imagery (2023-12-10)</desc><link href="http://osm.org/browse/node/11407697331"/></wpt><wpt lat="43.7372639" lon="7.4236087"><name>Ostende</name><desc>bus=yes
name=Ostende
public_transport=stop_position</desc><link href="http://osm.org/browse/node/11449741814"/></wpt><wpt lat="43.7402961" lon="7.4303209"><name>node/12136114443</name><desc>crossing=uncontrolled
crossing:markings=yes
highway=crossing</desc><link href="http://osm.org/browse/node/12136114443"/></wpt><wpt lat="43.7372699" lon="7.4258188"><name>Bateau Bus</name><desc>bus=yes
name=Bateau Bus
public_transport=stop_position
ref:STTM=1
source=Bing Aerial Imagery (2025-11-17)
tourist_bus=yes</desc><link href="http://osm.org/browse/node/13312466205"/></wpt><trk><name>Boulevard Albert 1er</name><desc>cycleway:left=no
cycleway:right=share_busway
highway=secondary
lanes=2
lit=yes
maxspeed=50
name=Boulevard Albert 1er
oneway=yes
surface=asphalt</desc><link href="http://osm.org/browse/way/4226740"/><trkseg><trkpt lat="43.7328624" lon="7.4221705"/><trkpt lat="43.7328884" lon="7.4221442"/><trkpt lat="43.7329405" lon="7.4220977"/><trkpt lat="43.7329826" lon="7.4220619"/><trkpt lat="43.7330228" lon="7.4220273"/><trkpt lat="43.7331331" lon="7.4219303"/><trkpt lat="43.7332095" lon="7.4218736"/></trkseg></trk><trk><name>Avenue de Monte-Carlo</name><desc>bicycle=no
highway=residential
lit=yes
maxspeed=30
motor_vehicle=designated
name=Avenue de Monte-Carlo
oneway=yes
surface=asphalt
wikidata=Q96216519</desc><link href="http://osm.org/browse/way/4229308"/><trkseg><trkpt lat="43.7378674" lon="7.4264312"/><trkpt lat="43.7378925" lon="7.4266758"/><trkpt lat="43.7379155" lon="7.4269003"/></trkseg></trk><trk><name>Boulevard Louis II</name><desc>highway=secondary
lanes=2
lit=yes
maxspeed=50
name=Boulevard Louis II
surface=asphalt
wikidata=Q96215281</desc><link href="http://osm.org/browse/way/4229536"/><trkseg><trkpt lat="43.7372699" lon="7.4258188"/><trkpt lat="43.7373162" lon="7.4261726"/><trkpt lat="43.7373587" lon="7.4265153"/><trkpt lat="43.7374191" lon="7.4268435"/><trkpt lat="43.7375321" lon="7.4273074"/></trkseg></trk><trk><name>Place du Casino</name><desc>highway=service
lit=yes
motor_vehicle=destination
name=Place du Casino
oneway=yes
sidewalk=right
surface=asphalt</desc><link href="http://osm.org/browse/way/4229658"/><trkseg><trkpt lat="43.7394883" lon="7.4271748"/><trkpt lat="43.7394592" lon="7.4271756"/><trkpt lat="43.7394456" lon="7.4271769"/><trkpt lat="43.7394313" lon="7.4271787"/><trkpt lat="43.7394146" lon="7.427185"/><trkpt lat="43.7393985" lon="7.4271921"/><trkpt lat="43.7393795" lon="7.4272017"/><trkpt lat="43.739352" lon="7.4272177"/><trkpt lat="43.7393211" lon="7.4272412"/><trkpt lat="43.739302" lon="7.4272599"/><trkpt lat="43.73929" lon="7.4272737"/><trkpt lat="43.7392609" lon="7.4273089"/><trkpt lat="43.7392366" lon="7.4273444"/><trkpt lat="43.739188" lon="7.4274184"/></trkseg></trk><trk><name>Avenue des Spélugues</name><desc>bus=no
highway=residential
lit=yes
maxspeed=50
name=Avenue des Spélugues
oneway=no
sidewalk=right
surface=asphalt
wikidata=Q96214495</desc><link href="http://osm.org/browse/way/4230006"/><trkseg><trkpt lat="43.7397122" lon="7.4272971"/><trkpt lat="43.7398154" lon="7.4274015"/><trkpt lat="43.7399103" lon="7.4274959"/><trkpt lat="43.7399287" lon="7.4275148"/></trkseg></trk><trk><name>Avenue Princesse Grace</name><desc>highway=residential
lanes=2
lit=yes
maxspeed=50
maxweight=7.5
name=Avenue Princesse Grace
smoothness=excellent
surface=asphalt</desc><link href="http://osm.org/browse/way/4230007"/><trkseg><trkpt lat="43.7409524" lon="7.4295273"/><trkpt lat="43.7409117" lon="7.4293988"/><trkpt lat="43.7408998" lon="7.4293699"/><trkpt lat="43.7408882" lon="7.4293503"/><trkpt lat="43.7408747" lon="7.4293349"/><trkpt lat="43.7408554" lon="7.4293172"/><trkpt lat="43.7408308" lon="7.4293045"/><trkpt lat="43.7408062" lon="7.4292963"/><trkpt lat="43.7407862" lon="7.4292952"/><trkpt lat="43.7407667" lon="7.4292976"/><trkpt lat="43.7407462" lon="7.429306"/><trkpt lat="43.7407264" lon="7.4293168"/><trkpt lat="43.7407043" lon="7.429333"/><trkpt lat="43.7406819" lon="7.4293552"/><trkpt lat="43.7406434" lon="7.4293951"/><trkpt lat="43.7405242" lon="7.429517"/><trkpt lat="43.7404844" lon="7.4295599"/><trkpt lat="43.7404501" lon="7.4296048"/><trkpt lat="43.7404191" lon="7.4296518"/><trkpt lat="43.7403844" lon="7.429696"/><trkpt lat="43.7403628" lon="7.4297226"/><trkpt lat="43.7403489" lon="7.4297349"/></trkseg></trk><trk><name>Avenue de Monte-Carlo</name><desc>highway=residential
lit=yes
name=Avenue de Monte-Carlo
sidewalk=right
surface=asphalt
wikidata=Q96216519</desc><link href="http://osm.org/browse/way/4230009"/><trkseg><trkpt lat="43.7394883" lon="7.4271748"/><trkpt lat="43.7395126" lon="7.4271798"/><trkpt lat="43.7395367" lon="7.4271868"/><trkpt lat="43.7395643" lon="7.4271984"/><trkpt lat="43.7395909" lon="7.4272109"/><trkpt lat="43.7396561" lon="7.427253"/><trkpt lat="43.7397122" lon="7.4272971"/></trkseg></trk><trk><name>Boulevard Louis II</name><desc>check_date=2026-03-13
cycleway:left=lane
cycleway:right=no
highway=secondary
lanes=2
layer=-1
lit=24/7
maxheight=default
maxspeed=50
name=Boulevard Louis II
sidewalk=left
surface=asphalt
tunnel=yes
wikidata=Q96215281</desc><link href="http://osm.org/browse/way/4230891"/><trkseg><trkpt lat="43.737802" lon="7.4280368"/><trkpt lat="43.7378538" lon="7.4281757"/><trkpt lat="43.7379094" lon="7.4283118"/><trkpt lat="43.7379687" lon="7.4284448"/><trkpt lat="43.7380316" lon="7.4285746"/><trkpt lat="43.7380981" lon="7.428701"/><trkpt lat="43.7381679" lon="7.4288239"/><trkpt lat="43.7382411" lon="7.4289429"/><trkpt lat="43.7383175" lon="7.429058"/><trkpt lat="43.7384192" lon="7.4291984"/><trkpt lat="43.7385256" lon="7.4293318"/><trkpt lat="43.7386365" lon="7.4294579"/><trkpt lat="43.7387517" lon="7.4295765"/><trkpt lat="43.738871" lon="7.4296871"/><trkpt lat="43.7389939" lon="7.4297897"/><trkpt lat="43.7391203" lon="7.4298839"/><trkpt lat="43.7392499" lon="7.4299695"/><trkpt lat="43.7393823" lon="7.4300464"/><trkpt lat="43.7395172" lon="7.4301143"/><trkpt lat="43.7396543" lon="7.4301731"/><trkpt lat="43.7397934" lon="7.4302226"/><trkpt lat="43.739934" lon="7.4302628"/><trkpt lat="43.7400758" lon="7.4302935"/><trkpt lat="43.7402186" lon="7.4303146"/><trkpt lat="43.7402961" lon="7.4303209"/><trkpt lat="43.7403619" lon="7.4303262"/></trkseg></trk><trk><name>Quai Antoine 1er</name><desc>cycleway:both=no
foot=no
highway=residential
lanes=2
lit=yes
name=Quai Antoine 1er
sidewalk=both
smoothness=excellent
surface=asphalt</desc><link href="http://osm.org/browse/way/39839529"/><trkseg><trkpt lat="43.7323832" lon="7.4229757"/><trkpt lat="43.7323873" lon="7.4230087"/><trkpt lat="43.7323963" lon="7.4230516"/><trkpt lat="43.7324594" lon="7.4233599"/><trkpt lat="43.7324688" lon="7.4233969"/><trkpt lat="43.7324824" lon="7.4234297"/><trkpt lat="43.7324935" lon="7.4234511"/><trkpt lat="43.7325058" lon="7.4234678"/><trkpt lat="43.7325241" lon="7.4234821"/><trkpt lat="43.7325469" lon="7.4234946"/><trkpt lat="43.7325683" lon="7.4234985"/><trkpt lat="43.7325923" lon="7.4234954"/><trkpt lat="43.7326198" lon="7.4234851"/><trkpt lat="43.7326411" lon="7.4234744"/><trkpt lat="43.7326613" lon="7.4234622"/><trkpt lat="43.73268" lon="7.4234484"/></trkseg></trk><trk><name>Boulevard Louis II</name><desc>highway=secondary
lanes=2
lit=yes
maxspeed=50
name=Boulevard Louis II
surface=asphalt
wikidata=Q96215281</desc><link href="http://osm.org/browse/way/41929969"/><trkseg><trkpt lat="43.7403619" lon="7.4303262"/><trkpt lat="43.7408882" lon="7.4303598"/></trkseg></trk><trk><name>Avenue du Port</name><desc>cycleway:left=no
cycleway:right=share_busway
foot=no
highway=secondary
lanes=2
lit=yes
maxspeed=50
name=Avenue du Port
oneway=yes
surface=asphalt</desc><link href="http://osm.org/browse/way/60767229"/><trkseg><trkpt lat="43.7327621" lon="7.422284"/><trkpt lat="43.7328624" lon="7.4221705"/></trkseg></trk><trk><name>Avenue d'Ostende</name><desc>cycleway:left=share_busway
highway=secondary
lanes=2
lit=yes
maxspeed=50
name=Avenue d'Ostende
name:etymology=Ostende
name:etymology:wikidata=Q12996
smoothness=excellent
surface=asphalt
wikidata=Q96208546</desc><link href="http://osm.org/browse/way/157719644"/><trkseg><trkpt lat="43.7370216" lon="7.4221175"/><trkpt lat="43.7370662" lon="7.422551"/><trkpt lat="43.7370944" lon="7.4227661"/><trkpt lat="43.737098" lon="7.4227884"/><trkpt lat="43.7371175" lon="7.4229093"/><trkpt lat="43.7371615" lon="7.4231363"/><trkpt lat="43.7372395" lon="7.423497"/><trkpt lat="43.7372639" lon="7.4236087"/><trkpt lat="43.7372681" lon="7.4236281"/><trkpt lat="43.7372923" lon="7.4237413"/><trkpt lat="43.7373476" lon="7.4240136"/></trkseg></trk><trk><name>Boulevard Louis II</name><desc>highway=secondary
lanes=2
lit=yes
maxspeed=50
name=Boulevard Louis II
surface=asphalt
wikidata=Q96215281</desc><link href="http://osm.org/browse/way/160004393"/><trkseg><trkpt lat="43.7375321" lon="7.4273074"/><trkpt lat="43.7376874" lon="7.4277242"/><trkpt lat="43.7377783" lon="7.4279727"/></trkseg></trk><trk><name>Avenue de Monte-Carlo</name><desc>bicycle=yes
highway=service
lit=yes
motor_vehicle=destination
name=Avenue de Monte-Carlo
oneway=yes
surface=asphalt</desc><link href="http://osm.org/browse/way/161752645"/><trkseg><trkpt lat="43.739188" lon="7.4274184"/><trkpt lat="43.7390917" lon="7.4275679"/><trkpt lat="43.7390682" lon="7.4276022"/><trkpt lat="43.7390344" lon="7.4276779"/></trkseg></trk><trk><name>Avenue de Monte-Carlo</name><desc>bicycle=no
highway=residential
lit=yes
maxspeed=30
motor_vehicle=designated
name=Avenue de Monte-Carlo
oneway=yes
sidewalk:both=separate
smoothness=excellent
surface=asphalt
wikidata=Q96216519</desc><link href="http://osm.org/browse/way/161775592"/><trkseg><trkpt lat="43.7379155" lon="7.4269003"/><trkpt lat="43.7379272" lon="7.4269861"/><trkpt lat="43.7379396" lon="7.4270836"/><trkpt lat="43.7379628" lon="7.4271837"/><trkpt lat="43.7379795" lon="7.4272394"/><trkpt lat="43.7380025" lon="7.4273118"/><trkpt lat="43.7380219" lon="7.4273589"/><trkpt lat="43.7380454" lon="7.4274131"/><trkpt lat="43.7380705" lon="7.4274609"/><trkpt lat="43.7381061" lon="7.4275235"/><trkpt lat="43.738127" lon="7.4275613"/><trkpt lat="43.7381552" lon="7.4276028"/><trkpt lat="43.7382041" lon="7.4276709"/><trkpt lat="43.7382491" lon="7.4277234"/><trkpt lat="43.7382975" lon="7.4277728"/><trkpt lat="43.7383314" lon="7.4278039"/><trkpt lat="43.738375" lon="7.4278361"/><trkpt lat="43.7383942" lon="7.4278451"/><trkpt lat="43.7384212" lon="7.4278578"/><trkpt lat="43.7384786" lon="7.4278737"/><trkpt lat="43.7385395" lon="7.4278761"/><trkpt lat="43.7386026" lon="7.4278707"/><trkpt lat="43.7386516" lon="7.4278609"/><trkpt lat="43.7386674" lon="7.4278577"/><trkpt lat="43.7387334" lon="7.4278429"/><trkpt lat="43.7388132" lon="7.4278089"/><trkpt lat="43.738834" lon="7.4277976"/><trkpt lat="43.7389006" lon="7.4277613"/><trkpt lat="43.7389813" lon="7.4277072"/></trkseg></trk><trk><name>Boulevard Albert 1er</name><desc>cycleway:left=no
cycleway:right=share_busway
highway=secondary
lane_markings=yes
lanes=2
lit=yes
maxspeed=50
name=Boulevard Albert 1er
oneway=yes
surface=asphalt</desc><link href="http://osm.org/browse/way/166399479"/><trkseg><trkpt lat="43.734428" lon="7.4213847"/><trkpt lat="43.7344485" lon="7.4213798"/><trkpt lat="43.7344691" lon="7.4213748"/><trkpt lat="43.7344802" lon="7.4213722"/><trkpt lat="43.7345446" lon="7.421358"/><trkpt lat="43.7346006" lon="7.4213456"/><trkpt lat="43.7346566" lon="7.4213333"/><trkpt lat="43.7346786" lon="7.4213284"/><trkpt lat="43.7347276" lon="7.4213176"/><trkpt lat="43.7347806" lon="7.4213059"/><trkpt lat="43.734838" lon="7.4212964"/><trkpt lat="43.7349149" lon="7.4212837"/><trkpt lat="43.7349832" lon="7.4212724"/><trkpt lat="43.7350269" lon="7.4212652"/><trkpt lat="43.7352207" lon="7.421245"/><trkpt lat="43.7352623" lon="7.4212403"/><trkpt lat="43.735349" lon="7.4212306"/><trkpt lat="43.735402" lon="7.4212229"/><trkpt lat="43.7354374" lon="7.4212204"/><trkpt lat="43.7355084" lon="7.4212154"/><trkpt lat="43.7355796" lon="7.4212103"/><trkpt lat="43.7356156" lon="7.4212077"/><trkpt lat="43.7356754" lon="7.4212091"/><trkpt lat="43.7357741" lon="7.4212113"/><trkpt lat="43.7358229" lon="7.4212159"/><trkpt lat="43.7359846" lon="7.4212313"/><trkpt lat="43.7359964" lon="7.4212324"/><trkpt lat="43.7360672" lon="7.4212466"/><trkpt lat="43.7361473" lon="7.4212611"/><trkpt lat="43.7362286" lon="7.4212846"/><trkpt lat="43.736292" lon="7.4213049"/><trkpt lat="43.7363543" lon="7.4213277"/></trkseg></trk><trk><name>Avenue des Spélugues</name><desc>highway=residential
lanes=2
lit=yes
maxspeed=50
name=Avenue des Spélugues
oneway=no
smoothness=excellent
surface=asphalt
wikidata=Q96214495</desc><link href="http://osm.org/browse/way/166399501"/><trkseg><trkpt lat="43.7401666" lon="7.4277541"/><trkpt lat="43.7402522" lon="7.4278392"/><trkpt lat="43.7403036" lon="7.4278912"/><trkpt lat="43.7403359" lon="7.4279255"/><trkpt lat="43.7404648" lon="7.4280619"/><trkpt lat="43.740796" lon="7.4284035"/><trkpt lat="43.7410189" lon="7.4286333"/><trkpt lat="43.7410596" lon="7.4286771"/><trkpt lat="43.7410843" lon="7.4287037"/><trkpt lat="43.7410952" lon="7.4287225"/><trkpt lat="43.7411034" lon="7.4287442"/><trkpt lat="43.7411105" lon="7.4287798"/><trkpt lat="43.7411123" lon="7.4288124"/></trkseg></trk><trk><name>Avenue du Port</name><desc>cycleway:both=no
foot=no
highway=secondary
lanes=2
lit=yes
maxspeed=50
name=Avenue du Port
oneway=yes
surface=asphalt</desc><link href="http://osm.org/browse/way/168681959"/><trkseg><trkpt lat="43.7324782" lon="7.4224166"/><trkpt lat="43.7325169" lon="7.422414"/><trkpt lat="43.7325554" lon="7.4224071"/><trkpt lat="43.7325924" lon="7.4223963"/><trkpt lat="43.7326287" lon="7.4223814"/><trkpt lat="43.7326641" lon="7.4223626"/><trkpt lat="43.7326982" lon="7.42234"/><trkpt lat="43.732731" lon="7.4223137"/><trkpt lat="43.7327621" lon="7.422284"/></trkseg></trk><trk><name>Route de la Piscine</name><desc>cycleway:both=no
highway=residential
lanes=2
lit=yes
name=Route de la Piscine
oneway=yes
surface=asphalt</desc><link href="http://osm.org/browse/way/214636589"/><trkseg><trkpt lat="43.735013" lon="7.4222309"/><trkpt lat="43.7346973" lon="7.4223122"/><trkpt lat="43.7345465" lon="7.4223501"/><trkpt lat="43.7343117" lon="7.4224101"/></trkseg></trk><trk><name>Avenue d'Ostende</name><desc>cycleway:left=share_busway
highway=secondary
lanes=2
lit=yes
maxspeed=50
name=Avenue d'Ostende
name:etymology=Ostende
name:etymology:wikidata=Q12996
sidewalk:both=separate
smoothness=excellent
surface=asphalt
wikidata=Q96208546</desc><link href="http://osm.org/browse/way/254596486"/><trkseg><trkpt lat="43.7373476" lon="7.4240136"/><trkpt lat="43.7373825" lon="7.4241961"/><trkpt lat="43.7374014" lon="7.4243568"/><trkpt lat="43.7374193" lon="7.4245725"/><trkpt lat="43.7374283" lon="7.4246881"/><trkpt lat="43.7374405" lon="7.4248685"/><trkpt lat="43.7374518" lon="7.4249411"/><trkpt lat="43.7374699" lon="7.4250128"/><trkpt lat="43.7374832" lon="7.425065"/><trkpt lat="43.7375256" lon="7.4251862"/><trkpt lat="43.7376564" lon="7.4255617"/><trkpt lat="43.7376877" lon="7.4256495"/><trkpt lat="43.7377195" lon="7.4257385"/><trkpt lat="43.7377526" lon="7.4258405"/><trkpt lat="43.7377731" lon="7.4259193"/><trkpt lat="43.7377956" lon="7.4260179"/><trkpt lat="43.7378333" lon="7.4262217"/><trkpt lat="43.7378674" lon="7.4264312"/></trkseg></trk><trk><name>way/348019480</name><desc>highway=service
lit=yes
oneway=yes
surface=asphalt</desc><link href="http://osm.org/browse/way/348019480"/><trkseg><trkpt lat="43.7371178" lon="7.4254466"/><trkpt lat="43.7371657" lon="7.4254431"/><trkpt lat="43.7371826" lon="7.4254477"/><trkpt lat="43.7372038" lon="7.4254563"/><trkpt lat="43.7372286" lon="7.4254806"/></trkseg></trk><trk><name>Avenue des Spélugues</name><desc>bus=no
highway=residential
lit=yes
maxspeed=50
name=Avenue des Spélugues
oneway=no
sidewalk=right
smoothness=excellent
surface=asphalt
wikidata=Q96214495</desc><link href="http://osm.org/browse/way/434567309"/><trkseg><trkpt lat="43.7399287" lon="7.4275148"/><trkpt lat="43.740058" lon="7.4276466"/><trkpt lat="43.7401666" lon="7.4277541"/></trkseg></trk><trk><name>Quai des États-Unis</name><desc>highway=service
lit=yes
name=Quai des États-Unis
oneway=yes
wikidata=Q98924941</desc><link href="http://osm.org/browse/way/485746484"/><trkseg><trkpt lat="43.7368624" lon="7.4230269"/><trkpt lat="43.736892" lon="7.4232502"/><trkpt lat="43.7368973" lon="7.4232964"/><trkpt lat="43.736901" lon="7.4233282"/><trkpt lat="43.7369294" lon="7.4236136"/><trkpt lat="43.7369523" lon="7.4238442"/><trkpt lat="43.7369648" lon="7.42397"/><trkpt lat="43.7369718" lon="7.4240415"/><trkpt lat="43.7369986" lon="7.4243136"/><trkpt lat="43.7370146" lon="7.4244761"/><trkpt lat="43.7370205" lon="7.4245365"/><trkpt lat="43.7370352" lon="7.4246856"/></trkseg></trk><trk><name>Route de la Piscine</name><desc>cycleway:both=no
highway=residential
lit=yes
name=Route de la Piscine
oneway=yes
smoothness=excellent
surface=asphalt
wikidata=Q99160033</desc><link href="http://osm.org/browse/way/503475642"/><trkseg><trkpt lat="43.7368624" lon="7.4230269"/><trkpt lat="43.7367945" lon="7.4222919"/><trkpt lat="43.7367843" lon="7.4222483"/><trkpt lat="43.7367756" lon="7.4222249"/><trkpt lat="43.7367596" lon="7.4221967"/><trkpt lat="43.73674" lon="7.4221688"/><trkpt lat="43.7366647" lon="7.4221062"/><trkpt lat="43.736606" lon="7.4220626"/><trkpt lat="43.7364607" lon="7.421966"/><trkpt lat="43.7364055" lon="7.4219352"/><trkpt lat="43.7363643" lon="7.4219124"/><trkpt lat="43.7362233" lon="7.4218527"/><trkpt lat="43.736139" lon="7.4218232"/><trkpt lat="43.7360731" lon="7.4218038"/><trkpt lat="43.735999" lon="7.4217877"/><trkpt lat="43.7358822" lon="7.4217696"/><trkpt lat="43.7357262" lon="7.4217689"/><trkpt lat="43.7355741" lon="7.421779"/></trkseg></trk><trk><name>Avenue des Spélugues</name><desc>highway=residential
lanes=2
lit=yes
maxspeed=50
maxweight=7.5
name=Avenue des Spélugues
smoothness=excellent
surface=asphalt
wikidata=Q96214495</desc><link href="http://osm.org/browse/way/568187257"/><trkseg><trkpt lat="43.7403489" lon="7.4297349"/><trkpt lat="43.74033" lon="7.4297431"/><trkpt lat="43.7403141" lon="7.4297463"/><trkpt lat="43.7402997" lon="7.4297468"/><trkpt lat="43.7402856" lon="7.4297439"/><trkpt lat="43.7402689" lon="7.4297361"/><trkpt lat="43.7402517" lon="7.4297231"/><trkpt lat="43.7402396" lon="7.4297097"/><trkpt lat="43.740226" lon="7.4296895"/><trkpt lat="43.7402159" lon="7.4296636"/><trkpt lat="43.7402092" lon="7.4296386"/><trkpt lat="43.7402055" lon="7.4296178"/><trkpt lat="43.7402054" lon="7.4295996"/><trkpt lat="43.7402057" lon="7.4295853"/><trkpt lat="43.7402108" lon="7.4295617"/><trkpt lat="43.7402213" lon="7.429538"/><trkpt lat="43.7402391" lon="7.4295131"/><trkpt lat="43.7402573" lon="7.4294967"/><trkpt lat="43.740277" lon="7.4294825"/><trkpt lat="43.7403011" lon="7.4294729"/><trkpt lat="43.74033" lon="7.4294582"/><trkpt lat="43.7403706" lon="7.4294295"/><trkpt lat="43.74041" lon="7.4293974"/><trkpt lat="43.7404343" lon="7.4293751"/><trkpt lat="43.7404592" lon="7.4293493"/><trkpt lat="43.7404953" lon="7.4293144"/><trkpt lat="43.7405536" lon="7.4292581"/><trkpt lat="43.7405914" lon="7.4292216"/><trkpt lat="43.7406247" lon="7.4291921"/><trkpt lat="43.7406539" lon="7.4291697"/><trkpt lat="43.7406785" lon="7.429153"/><trkpt lat="43.7407055" lon="7.4291401"/><trkpt lat="43.740726" lon="7.4291322"/><trkpt lat="43.7407531" lon="7.4291256"/><trkpt lat="43.7408062" lon="7.4291201"/><trkpt lat="43.7408605" lon="7.4291189"/><trkpt lat="43.7409035" lon="7.4291154"/><trkpt lat="43.7409413" lon="7.4291054"/><trkpt lat="43.740968" lon="7.4290907"/><trkpt lat="43.7409906" lon="7.4290766"/><trkpt lat="43.7410131" lon="7.4290554"/><trkpt lat="43.7410395" lon="7.4290259"/><trkpt lat="43.7410615" lon="7.4289931"/><trkpt lat="43.7410815" lon="7.428956"/><trkpt lat="43.7410938" lon="7.4289249"/><trkpt lat="43.7411027" lon="7.4288861"/><trkpt lat="43.7411083" lon="7.4288526"/><trkpt lat="43.7411123" lon="7.4288124"/></trkseg></trk><trk><name>Voie des stands</name><desc>highway=raceway
name=Voie des stands
name:en=Pit Lane
oneway=yes
sport=motor
surface=asphalt</desc><link href="http://osm.org/browse/way/850261588"/><trkseg><trkpt lat="43.7323832" lon="7.4229757"/><trkpt lat="43.7323843" lon="7.4229514"/><trkpt lat="43.7323875" lon="7.4229275"/><trkpt lat="43.7323956" lon="7.4229025"/><trkpt lat="43.7324067" lon="7.4228834"/><trkpt lat="43.7324203" lon="7.422866"/><trkpt lat="43.7324412" lon="7.422847"/><trkpt lat="43.7324635" lon="7.4228335"/><trkpt lat="43.7324863" lon="7.4228247"/><trkpt lat="43.7325078" lon="7.422819"/><trkpt lat="43.7325574" lon="7.4228117"/><trkpt lat="43.7326378" lon="7.4228092"/><trkpt lat="43.7327227" lon="7.4228067"/><trkpt lat="43.7327778" lon="7.422775"/><trkpt lat="43.7329468" lon="7.4225672"/><trkpt lat="43.7330447" lon="7.4224645"/><trkpt lat="43.7331674" lon="7.4223618"/><trkpt lat="43.7333383" lon="7.4222334"/><trkpt lat="43.7335354" lon="7.4221137"/><trkpt lat="43.7336848" lon="7.4220328"/><trkpt lat="43.7339063" lon="7.4219326"/><trkpt lat="43.7340702" lon="7.4218713"/><trkpt lat="43.7342932" lon="7.4217862"/><trkpt lat="43.7345098" lon="7.4217193"/><trkpt lat="43.7345847" lon="7.4216764"/><trkpt lat="43.7348949" lon="7.421477"/><trkpt lat="43.7350632" lon="7.4213909"/><trkpt lat="43.7351155" lon="7.421363"/><trkpt lat="43.7351591" lon="7.4213334"/><trkpt lat="43.735199" lon="7.4212978"/><trkpt lat="43.7352623" lon="7.4212403"/></trkseg></trk><trk><name>Boulevard Albert 1er</name><desc>cycleway:left=no
cycleway:right=share_busway
foot=no
highway=secondary
lanes=2
lit=yes
maxspeed=50
name=Boulevard Albert 1er
oneway=yes
surface=asphalt</desc><link href="http://osm.org/browse/way/1019174508"/><trkseg><trkpt lat="43.7332095" lon="7.4218736"/><trkpt lat="43.7333004" lon="7.421812"/><trkpt lat="43.7333746" lon="7.42178"/><trkpt lat="43.7334401" lon="7.421753"/><trkpt lat="43.7335478" lon="7.4217145"/><trkpt lat="43.7335584" lon="7.4217098"/><trkpt lat="43.7335705" lon="7.421705"/><trkpt lat="43.7336006" lon="7.421693"/><trkpt lat="43.7337308" lon="7.4216373"/><trkpt lat="43.7338388" lon="7.4215941"/><trkpt lat="43.7339007" lon="7.421569"/><trkpt lat="43.7339309" lon="7.4215567"/><trkpt lat="43.7339825" lon="7.4215368"/><trkpt lat="43.7340015" lon="7.4215295"/><trkpt lat="43.7341258" lon="7.4214815"/><trkpt lat="43.7342658" lon="7.4214304"/><trkpt lat="43.7343333" lon="7.4214102"/><trkpt lat="43.7343601" lon="7.4214022"/><trkpt lat="43.7343821" lon="7.4213956"/><trkpt lat="43.734428" lon="7.4213847"/></trkseg></trk><trk><name>Circuit de Monaco</name><desc>highway=raceway
lit=yes
name=Circuit de Monaco
name:ru=Городская трасса Монте-Карло
oneway=yes
sport=motor</desc><link href="http://osm.org/browse/way/1081401613"/><trkseg><trkpt lat="43.7371178" lon="7.4254466"/><trkpt lat="43.7370767" lon="7.4254487"/><trkpt lat="43.7370555" lon="7.4254472"/><trkpt lat="43.7370388" lon="7.4254385"/><trkpt lat="43.737023" lon="7.4254122"/><trkpt lat="43.7370141" lon="7.4253898"/><trkpt lat="43.7370089" lon="7.4253433"/><trkpt lat="43.7369944" lon="7.4252042"/><trkpt lat="43.7369963" lon="7.4251763"/><trkpt lat="43.7370048" lon="7.4251449"/><trkpt lat="43.7370222" lon="7.4251069"/><trkpt lat="43.737051" lon="7.4250331"/><trkpt lat="43.7370633" lon="7.4249926"/><trkpt lat="43.7370655" lon="7.4249622"/><trkpt lat="43.7370352" lon="7.4246856"/></trkseg></trk><trk><name>Circuit de Monaco</name><desc>highway=raceway
lit=yes
name=Circuit de Monaco
name:ru=Городская трасса Монте-Карло
oneway=yes
sport=motor</desc><link href="http://osm.org/browse/way/1081401614"/><trkseg><trkpt lat="43.7355741" lon="7.421779"/><trkpt lat="43.7354893" lon="7.4218167"/><trkpt lat="43.7354474" lon="7.421829"/><trkpt lat="43.7353992" lon="7.4218668"/><trkpt lat="43.7353648" lon="7.4219117"/><trkpt lat="43.7352623" lon="7.4221029"/><trkpt lat="43.7352391" lon="7.4221371"/><trkpt lat="43.7352153" lon="7.4221653"/><trkpt lat="43.7352024" lon="7.4221795"/><trkpt lat="43.7351872" lon="7.4221942"/><trkpt lat="43.735153" lon="7.4222106"/><trkpt lat="43.735013" lon="7.4222309"/></trkseg></trk><trk><name>Circuit de Monaco</name><desc>highway=raceway
lit=yes
name=Circuit de Monaco
name:ru=Городская трасса Монте-Карло
oneway=yes
sport=motor</desc><link href="http://osm.org/browse/way/1081401615"/><trkseg><trkpt lat="43.7343117" lon="7.4224101"/><trkpt lat="43.7341741" lon="7.4224557"/><trkpt lat="43.734127" lon="7.4224713"/><trkpt lat="43.7340798" lon="7.4224721"/><trkpt lat="43.7340438" lon="7.4224431"/><trkpt lat="43.7340125" lon="7.4224029"/><trkpt lat="43.7339906" lon="7.422358"/><trkpt lat="43.7339783" lon="7.422325"/><trkpt lat="43.7339571" lon="7.4222676"/><trkpt lat="43.7339472" lon="7.422246"/><trkpt lat="43.7339355" lon="7.4222282"/><trkpt lat="43.733914" lon="7.4222091"/><trkpt lat="43.7338809" lon="7.4222024"/><trkpt lat="43.7338035" lon="7.4222185"/><trkpt lat="43.7336912" lon="7.4222632"/><trkpt lat="43.7334889" lon="7.4223646"/><trkpt lat="43.7333427" lon="7.422458"/><trkpt lat="43.7332317" lon="7.4225366"/><trkpt lat="43.7331499" lon="7.4226056"/><trkpt lat="43.7330823" lon="7.4226735"/><trkpt lat="43.7329897" lon="7.4227812"/><trkpt lat="43.7329387" lon="7.4228538"/><trkpt lat="43.7328843" lon="7.4229423"/><trkpt lat="43.7328518" lon="7.4230048"/><trkpt lat="43.7328225" lon="7.423074"/><trkpt lat="43.7327933" lon="7.4231568"/><trkpt lat="43.7327339" lon="7.4233333"/><trkpt lat="43.7327089" lon="7.4233892"/><trkpt lat="43.73268" lon="7.4234484"/></trkseg></trk><trk><name>Circuit de Monaco</name><desc>highway=raceway
lit=yes
name=Circuit de Monaco
name:ru=Городская трасса Монте-Карло
oneway=yes
sport=motor
surface=asphalt</desc><link href="http://osm.org/browse/way/1081401616"/><trkseg><trkpt lat="43.7365583" lon="7.4214168"/><trkpt lat="43.7366029" lon="7.4214329"/><trkpt lat="43.7366488" lon="7.4214431"/><trkpt lat="43.7367209" lon="7.4214561"/><trkpt lat="43.7368491" lon="7.421484"/><trkpt lat="43.7368785" lon="7.4214935"/><trkpt lat="43.7369019" lon="7.4215052"/><trkpt lat="43.7369335" lon="7.4215295"/><trkpt lat="43.7369566" lon="7.4215636"/><trkpt lat="43.7369691" lon="7.4215997"/><trkpt lat="43.7369767" lon="7.4216425"/><trkpt lat="43.7370216" lon="7.4221175"/></trkseg></trk><trk><name>Circuit de Monaco</name><desc>highway=raceway
lit=yes
name=Circuit de Monaco
name:ru=Городская трасса Монте-Карло
oneway=yes
sport=motor</desc><link href="http://osm.org/browse/way/1081401617"/><trkseg><trkpt lat="43.7323832" lon="7.4229757"/><trkpt lat="43.7323713" lon="7.4228796"/><trkpt lat="43.732366" lon="7.4228226"/><trkpt lat="43.7323624" lon="7.4227671"/><trkpt lat="43.7323615" lon="7.4227029"/><trkpt lat="43.7323636" lon="7.4226391"/><trkpt lat="43.732365" lon="7.422601"/><trkpt lat="43.7323713" lon="7.4225613"/><trkpt lat="43.732379" lon="7.4225331"/><trkpt lat="43.7323875" lon="7.4225096"/><trkpt lat="43.7324078" lon="7.4224736"/><trkpt lat="43.7324268" lon="7.4224491"/><trkpt lat="43.7324468" lon="7.4224303"/><trkpt lat="43.7324782" lon="7.4224166"/></trkseg></trk><trk><name>Avenue de Monte-Carlo</name><desc>bicycle=yes
highway=residential
lit=yes
name=Avenue de Monte-Carlo</desc><link href="http://osm.org/browse/way/1082515450"/><trkseg><trkpt lat="43.7390344" lon="7.4276779"/><trkpt lat="43.739005" lon="7.4276884"/><trkpt lat="43.7389813" lon="7.4277072"/></trkseg></trk><trk><name>Circuit de Monaco</name><desc>highway=raceway
lit=yes
name=Circuit de Monaco
oneway=yes
smoothness=excellent
sport=motor
surface=asphalt</desc><link href="http://osm.org/browse/way/1148199871"/><trkseg><trkpt lat="43.7410875" lon="7.4302528"/><trkpt lat="43.741081" lon="7.4302842"/><trkpt lat="43.7410691" lon="7.4303121"/><trkpt lat="43.74105" lon="7.4303397"/><trkpt lat="43.7410265" lon="7.4303555"/><trkpt lat="43.7409984" lon="7.4303633"/><trkpt lat="43.7409707" lon="7.4303639"/><trkpt lat="43.7408882" lon="7.4303598"/></trkseg></trk><trk><name>Avenue Princesse Grace</name><desc>highway=residential
lanes=1
lit=yes
maxspeed=50
name=Avenue Princesse Grace
oneway=yes
smoothness=excellent
surface=asphalt</desc><link href="http://osm.org/browse/way/1148675745"/><trkseg><trkpt lat="43.7409524" lon="7.4295273"/><trkpt lat="43.7409697" lon="7.4296425"/><trkpt lat="43.7409778" lon="7.4296871"/><trkpt lat="43.7410018" lon="7.4297697"/></trkseg></trk><trk><name>Boulevard Louis II</name><desc>highway=secondary
lanes=2
layer=-1
lit=yes
maxheight=default
maxspeed=50
name=Boulevard Louis II
source=Bing Aerial Imagery (2023-12-11)
surface=asphalt
tunnel=yes
wikidata=Q96215281</desc><link href="http://osm.org/browse/way/1230247123"/><trkseg><trkpt lat="43.7377783" lon="7.4279727"/><trkpt lat="43.737802" lon="7.4280368"/></trkseg></trk><trk><name>Sortie des stands</name><desc>highway=raceway
name=Sortie des stands
oneway=yes
sport=motor</desc><link href="http://osm.org/browse/way/1388331347"/><trkseg><trkpt lat="43.7365583" lon="7.4214168"/><trkpt lat="43.7367728" lon="7.4215948"/><trkpt lat="43.7368079" lon="7.4216263"/><trkpt lat="43.7368434" lon="7.4216622"/><trkpt lat="43.7368842" lon="7.4217057"/><trkpt lat="43.7369048" lon="7.4217295"/><trkpt lat="43.7369175" lon="7.4217464"/><trkpt lat="43.7369391" lon="7.4217787"/><trkpt lat="43.7369589" lon="7.4218183"/><trkpt lat="43.7369728" lon="7.4218587"/><trkpt lat="43.7370216" lon="7.4221175"/></trkseg></trk><trk><name>Boulevard Louis II</name><desc>highway=secondary
lanes=2
lit=yes
maxspeed=50
name=Boulevard Louis II
surface=asphalt
wikidata=Q96215281</desc><link href="http://osm.org/browse/way/1451501763"/><trkseg><trkpt lat="43.7372286" lon="7.4254806"/><trkpt lat="43.7372699" lon="7.4258188"/></trkseg></trk><trk><name>Boulevard Albert 1er</name><desc>cycleway:both=no
highway=secondary
lane_markings=yes
lanes=2
lit=yes
maxspeed=50
name=Boulevard Albert 1er
oneway=yes
surface=asphalt</desc><link href="http://osm.org/browse/way/1453878835"/><trkseg><trkpt lat="43.7363543" lon="7.4213277"/><trkpt lat="43.7364622" lon="7.4213749"/><trkpt lat="43.7365583" lon="7.4214168"/></trkseg></trk><trk><name>Circuit de Monaco</name><desc>highway=raceway
lit=yes
name=Circuit de Monaco
oneway=yes
smoothness=excellent
sport=motor
surface=asphalt</desc><link href="http://osm.org/browse/way/1470365906"/><trkseg><trkpt lat="43.7410018" lon="7.4297697"/><trkpt lat="43.7410436" lon="7.4299069"/><trkpt lat="43.7410664" lon="7.4300008"/><trkpt lat="43.7410731" lon="7.4300319"/></trkseg></trk><trk><name>Circuit de Monaco</name><desc>highway=raceway
layer=-1
lit=yes
name=Circuit de Monaco
oneway=yes
smoothness=excellent
sport=motor
surface=asphalt
tunnel=yes</desc><link href="http://osm.org/browse/way/1470365907"/><trkseg><trkpt lat="43.7410731" lon="7.4300319"/><trkpt lat="43.7410846" lon="7.4300892"/><trkpt lat="43.7410879" lon="7.4301307"/><trkpt lat="43.7410904" lon="7.4301723"/><trkpt lat="43.7410891" lon="7.4302209"/><trkpt lat="43.7410875" lon="7.4302528"/></trkseg></trk><trk><name>way/850261588</name><desc></desc><link href="http://osm.org/browse/way/850261588"/><trkseg><trkpt lat="43.7323832" lon="7.4229757"/><trkpt lat="43.7323843" lon="7.4229514"/><trkpt lat="43.7323875" lon="7.4229275"/><trkpt lat="43.7323956" lon="7.4229025"/><trkpt lat="43.7324067" lon="7.4228834"/><trkpt lat="43.7324203" lon="7.422866"/><trkpt lat="43.7324412" lon="7.422847"/><trkpt lat="43.7324635" lon="7.4228335"/><trkpt lat="43.7324863" lon="7.4228247"/><trkpt lat="43.7325078" lon="7.422819"/><trkpt lat="43.7325574" lon="7.4228117"/><trkpt lat="43.7326378" lon="7.4228092"/><trkpt lat="43.7327227" lon="7.4228067"/><trkpt lat="43.7327778" lon="7.422775"/><trkpt lat="43.7329468" lon="7.4225672"/><trkpt lat="43.7330447" lon="7.4224645"/><trkpt lat="43.7331674" lon="7.4223618"/><trkpt lat="43.7333383" lon="7.4222334"/><trkpt lat="43.7335354" lon="7.4221137"/><trkpt lat="43.7336848" lon="7.4220328"/><trkpt lat="43.7339063" lon="7.4219326"/><trkpt lat="43.7340702" lon="7.4218713"/><trkpt lat="43.7342932" lon="7.4217862"/><trkpt lat="43.7345098" lon="7.4217193"/><trkpt lat="43.7345847" lon="7.4216764"/><trkpt lat="43.7348949" lon="7.421477"/><trkpt lat="43.7350632" lon="7.4213909"/><trkpt lat="43.7351155" lon="7.421363"/><trkpt lat="43.7351591" lon="7.4213334"/><trkpt lat="43.735199" lon="7.4212978"/><trkpt lat="43.7352623" lon="7.4212403"/></trkseg></trk><trk><name>way/39839529</name><desc></desc><link href="http://osm.org/browse/way/39839529"/><trkseg><trkpt lat="43.7323832" lon="7.4229757"/><trkpt lat="43.7323873" lon="7.4230087"/><trkpt lat="43.7323963" lon="7.4230516"/><trkpt lat="43.7324594" lon="7.4233599"/><trkpt lat="43.7324688" lon="7.4233969"/><trkpt lat="43.7324824" lon="7.4234297"/><trkpt lat="43.7324935" lon="7.4234511"/><trkpt lat="43.7325058" lon="7.4234678"/><trkpt lat="43.7325241" lon="7.4234821"/><trkpt lat="43.7325469" lon="7.4234946"/><trkpt lat="43.7325683" lon="7.4234985"/><trkpt lat="43.7325923" lon="7.4234954"/><trkpt lat="43.7326198" lon="7.4234851"/><trkpt lat="43.7326411" lon="7.4234744"/><trkpt lat="43.7326613" lon="7.4234622"/><trkpt lat="43.73268" lon="7.4234484"/></trkseg></trk><trk><name>way/1081401615</name><desc></desc><link href="http://osm.org/browse/way/1081401615"/><trkseg><trkpt lat="43.7343117" lon="7.4224101"/><trkpt lat="43.7341741" lon="7.4224557"/><trkpt lat="43.734127" lon="7.4224713"/><trkpt lat="43.7340798" lon="7.4224721"/><trkpt lat="43.7340438" lon="7.4224431"/><trkpt lat="43.7340125" lon="7.4224029"/><trkpt lat="43.7339906" lon="7.422358"/><trkpt lat="43.7339783" lon="7.422325"/><trkpt lat="43.7339571" lon="7.4222676"/><trkpt lat="43.7339472" lon="7.422246"/><trkpt lat="43.7339355" lon="7.4222282"/><trkpt lat="43.733914" lon="7.4222091"/><trkpt lat="43.7338809" lon="7.4222024"/><trkpt lat="43.7338035" lon="7.4222185"/><trkpt lat="43.7336912" lon="7.4222632"/><trkpt lat="43.7334889" lon="7.4223646"/><trkpt lat="43.7333427" lon="7.422458"/><trkpt lat="43.7332317" lon="7.4225366"/><trkpt lat="43.7331499" lon="7.4226056"/><trkpt lat="43.7330823" lon="7.4226735"/><trkpt lat="43.7329897" lon="7.4227812"/><trkpt lat="43.7329387" lon="7.4228538"/><trkpt lat="43.7328843" lon="7.4229423"/><trkpt lat="43.7328518" lon="7.4230048"/><trkpt lat="43.7328225" lon="7.423074"/><trkpt lat="43.7327933" lon="7.4231568"/><trkpt lat="43.7327339" lon="7.4233333"/><trkpt lat="43.7327089" lon="7.4233892"/><trkpt lat="43.73268" lon="7.4234484"/></trkseg></trk><trk><name>way/214636589</name><desc></desc><link href="http://osm.org/browse/way/214636589"/><trkseg><trkpt lat="43.735013" lon="7.4222309"/><trkpt lat="43.7346973" lon="7.4223122"/><trkpt lat="43.7345465" lon="7.4223501"/><trkpt lat="43.7343117" lon="7.4224101"/></trkseg></trk><trk><name>way/1081401614</name><desc></desc><link href="http://osm.org/browse/way/1081401614"/><trkseg><trkpt lat="43.7355741" lon="7.421779"/><trkpt lat="43.7354893" lon="7.4218167"/><trkpt lat="43.7354474" lon="7.421829"/><trkpt lat="43.7353992" lon="7.4218668"/><trkpt lat="43.7353648" lon="7.4219117"/><trkpt lat="43.7352623" lon="7.4221029"/><trkpt lat="43.7352391" lon="7.4221371"/><trkpt lat="43.7352153" lon="7.4221653"/><trkpt lat="43.7352024" lon="7.4221795"/><trkpt lat="43.7351872" lon="7.4221942"/><trkpt lat="43.735153" lon="7.4222106"/><trkpt lat="43.735013" lon="7.4222309"/></trkseg></trk><trk><name>way/503475642</name><desc></desc><link href="http://osm.org/browse/way/503475642"/><trkseg><trkpt lat="43.7368624" lon="7.4230269"/><trkpt lat="43.7367945" lon="7.4222919"/><trkpt lat="43.7367843" lon="7.4222483"/><trkpt lat="43.7367756" lon="7.4222249"/><trkpt lat="43.7367596" lon="7.4221967"/><trkpt lat="43.73674" lon="7.4221688"/><trkpt lat="43.7366647" lon="7.4221062"/><trkpt lat="43.736606" lon="7.4220626"/><trkpt lat="43.7364607" lon="7.421966"/><trkpt lat="43.7364055" lon="7.4219352"/><trkpt lat="43.7363643" lon="7.4219124"/><trkpt lat="43.7362233" lon="7.4218527"/><trkpt lat="43.736139" lon="7.4218232"/><trkpt lat="43.7360731" lon="7.4218038"/><trkpt lat="43.735999" lon="7.4217877"/><trkpt lat="43.7358822" lon="7.4217696"/><trkpt lat="43.7357262" lon="7.4217689"/><trkpt lat="43.7355741" lon="7.421779"/></trkseg></trk><trk><name>way/485746484</name><desc></desc><link href="http://osm.org/browse/way/485746484"/><trkseg><trkpt lat="43.7368624" lon="7.4230269"/><trkpt lat="43.736892" lon="7.4232502"/><trkpt lat="43.7368973" lon="7.4232964"/><trkpt lat="43.736901" lon="7.4233282"/><trkpt lat="43.7369294" lon="7.4236136"/><trkpt lat="43.7369523" lon="7.4238442"/><trkpt lat="43.7369648" lon="7.42397"/><trkpt lat="43.7369718" lon="7.4240415"/><trkpt lat="43.7369986" lon="7.4243136"/><trkpt lat="43.7370146" lon="7.4244761"/><trkpt lat="43.7370205" lon="7.4245365"/><trkpt lat="43.7370352" lon="7.4246856"/></trkseg></trk><trk><name>way/1081401613</name><desc></desc><link href="http://osm.org/browse/way/1081401613"/><trkseg><trkpt lat="43.7371178" lon="7.4254466"/><trkpt lat="43.7370767" lon="7.4254487"/><trkpt lat="43.7370555" lon="7.4254472"/><trkpt lat="43.7370388" lon="7.4254385"/><trkpt lat="43.737023" lon="7.4254122"/><trkpt lat="43.7370141" lon="7.4253898"/><trkpt lat="43.7370089" lon="7.4253433"/><trkpt lat="43.7369944" lon="7.4252042"/><trkpt lat="43.7369963" lon="7.4251763"/><trkpt lat="43.7370048" lon="7.4251449"/><trkpt lat="43.7370222" lon="7.4251069"/><trkpt lat="43.737051" lon="7.4250331"/><trkpt lat="43.7370633" lon="7.4249926"/><trkpt lat="43.7370655" lon="7.4249622"/><trkpt lat="43.7370352" lon="7.4246856"/></trkseg></trk><trk><name>way/348019480</name><desc></desc><link href="http://osm.org/browse/way/348019480"/><trkseg><trkpt lat="43.7371178" lon="7.4254466"/><trkpt lat="43.7371657" lon="7.4254431"/><trkpt lat="43.7371826" lon="7.4254477"/><trkpt lat="43.7372038" lon="7.4254563"/><trkpt lat="43.7372286" lon="7.4254806"/></trkseg></trk><trk><name>way/1451501763</name><desc></desc><link href="http://osm.org/browse/way/1451501763"/><trkseg><trkpt lat="43.7372286" lon="7.4254806"/><trkpt lat="43.7372699" lon="7.4258188"/></trkseg></trk><trk><name>way/4229536</name><desc></desc><link href="http://osm.org/browse/way/4229536"/><trkseg><trkpt lat="43.7372699" lon="7.4258188"/><trkpt lat="43.7373162" lon="7.4261726"/><trkpt lat="43.7373587" lon="7.4265153"/><trkpt lat="43.7374191" lon="7.4268435"/><trkpt lat="43.7375321" lon="7.4273074"/></trkseg></trk><trk><name>way/161775592</name><desc></desc><link href="http://osm.org/browse/way/161775592"/><trkseg><trkpt lat="43.7379155" lon="7.4269003"/><trkpt lat="43.7379272" lon="7.4269861"/><trkpt lat="43.7379396" lon="7.4270836"/><trkpt lat="43.7379628" lon="7.4271837"/><trkpt lat="43.7379795" lon="7.4272394"/><trkpt lat="43.7380025" lon="7.4273118"/><trkpt lat="43.7380219" lon="7.4273589"/><trkpt lat="43.7380454" lon="7.4274131"/><trkpt lat="43.7380705" lon="7.4274609"/><trkpt lat="43.7381061" lon="7.4275235"/><trkpt lat="43.738127" lon="7.4275613"/><trkpt lat="43.7381552" lon="7.4276028"/><trkpt lat="43.7382041" lon="7.4276709"/><trkpt lat="43.7382491" lon="7.4277234"/><trkpt lat="43.7382975" lon="7.4277728"/><trkpt lat="43.7383314" lon="7.4278039"/><trkpt lat="43.738375" lon="7.4278361"/><trkpt lat="43.7383942" lon="7.4278451"/><trkpt lat="43.7384212" lon="7.4278578"/><trkpt lat="43.7384786" lon="7.4278737"/><trkpt lat="43.7385395" lon="7.4278761"/><trkpt lat="43.7386026" lon="7.4278707"/><trkpt lat="43.7386516" lon="7.4278609"/><trkpt lat="43.7386674" lon="7.4278577"/><trkpt lat="43.7387334" lon="7.4278429"/><trkpt lat="43.7388132" lon="7.4278089"/><trkpt lat="43.738834" lon="7.4277976"/><trkpt lat="43.7389006" lon="7.4277613"/><trkpt lat="43.7389813" lon="7.4277072"/></trkseg></trk><trk><name>way/1082515450</name><desc></desc><link href="http://osm.org/browse/way/1082515450"/><trkseg><trkpt lat="43.7390344" lon="7.4276779"/><trkpt lat="43.739005" lon="7.4276884"/><trkpt lat="43.7389813" lon="7.4277072"/></trkseg></trk><trk><name>way/161752645</name><desc></desc><link href="http://osm.org/browse/way/161752645"/><trkseg><trkpt lat="43.739188" lon="7.4274184"/><trkpt lat="43.7390917" lon="7.4275679"/><trkpt lat="43.7390682" lon="7.4276022"/><trkpt lat="43.7390344" lon="7.4276779"/></trkseg></trk><trk><name>way/4229658</name><desc></desc><link href="http://osm.org/browse/way/4229658"/><trkseg><trkpt lat="43.7394883" lon="7.4271748"/><trkpt lat="43.7394592" lon="7.4271756"/><trkpt lat="43.7394456" lon="7.4271769"/><trkpt lat="43.7394313" lon="7.4271787"/><trkpt lat="43.7394146" lon="7.427185"/><trkpt lat="43.7393985" lon="7.4271921"/><trkpt lat="43.7393795" lon="7.4272017"/><trkpt lat="43.739352" lon="7.4272177"/><trkpt lat="43.7393211" lon="7.4272412"/><trkpt lat="43.739302" lon="7.4272599"/><trkpt lat="43.73929" lon="7.4272737"/><trkpt lat="43.7392609" lon="7.4273089"/><trkpt lat="43.7392366" lon="7.4273444"/><trkpt lat="43.739188" lon="7.4274184"/></trkseg></trk><trk><name>way/4230009</name><desc></desc><link href="http://osm.org/browse/way/4230009"/><trkseg><trkpt lat="43.7394883" lon="7.4271748"/><trkpt lat="43.7395126" lon="7.4271798"/><trkpt lat="43.7395367" lon="7.4271868"/><trkpt lat="43.7395643" lon="7.4271984"/><trkpt lat="43.7395909" lon="7.4272109"/><trkpt lat="43.7396561" lon="7.427253"/><trkpt lat="43.7397122" lon="7.4272971"/></trkseg></trk><trk><name>way/4230006</name><desc></desc><link href="http://osm.org/browse/way/4230006"/><trkseg><trkpt lat="43.7397122" lon="7.4272971"/><trkpt lat="43.7398154" lon="7.4274015"/><trkpt lat="43.7399103" lon="7.4274959"/><trkpt lat="43.7399287" lon="7.4275148"/></trkseg></trk><trk><name>way/434567309</name><desc></desc><link href="http://osm.org/browse/way/434567309"/><trkseg><trkpt lat="43.7399287" lon="7.4275148"/><trkpt lat="43.740058" lon="7.4276466"/><trkpt lat="43.7401666" lon="7.4277541"/></trkseg></trk><trk><name>way/166399501</name><desc></desc><link href="http://osm.org/browse/way/166399501"/><trkseg><trkpt lat="43.7401666" lon="7.4277541"/><trkpt lat="43.7402522" lon="7.4278392"/><trkpt lat="43.7403036" lon="7.4278912"/><trkpt lat="43.7403359" lon="7.4279255"/><trkpt lat="43.7404648" lon="7.4280619"/><trkpt lat="43.740796" lon="7.4284035"/><trkpt lat="43.7410189" lon="7.4286333"/><trkpt lat="43.7410596" lon="7.4286771"/><trkpt lat="43.7410843" lon="7.4287037"/><trkpt lat="43.7410952" lon="7.4287225"/><trkpt lat="43.7411034" lon="7.4287442"/><trkpt lat="43.7411105" lon="7.4287798"/><trkpt lat="43.7411123" lon="7.4288124"/></trkseg></trk><trk><name>way/568187257</name><desc></desc><link href="http://osm.org/browse/way/568187257"/><trkseg><trkpt lat="43.7403489" lon="7.4297349"/><trkpt lat="43.74033" lon="7.4297431"/><trkpt lat="43.7403141" lon="7.4297463"/><trkpt lat="43.7402997" lon="7.4297468"/><trkpt lat="43.7402856" lon="7.4297439"/><trkpt lat="43.7402689" lon="7.4297361"/><trkpt lat="43.7402517" lon="7.4297231"/><trkpt lat="43.7402396" lon="7.4297097"/><trkpt lat="43.740226" lon="7.4296895"/><trkpt lat="43.7402159" lon="7.4296636"/><trkpt lat="43.7402092" lon="7.4296386"/><trkpt lat="43.7402055" lon="7.4296178"/><trkpt lat="43.7402054" lon="7.4295996"/><trkpt lat="43.7402057" lon="7.4295853"/><trkpt lat="43.7402108" lon="7.4295617"/><trkpt lat="43.7402213" lon="7.429538"/><trkpt lat="43.7402391" lon="7.4295131"/><trkpt lat="43.7402573" lon="7.4294967"/><trkpt lat="43.740277" lon="7.4294825"/><trkpt lat="43.7403011" lon="7.4294729"/><trkpt lat="43.74033" lon="7.4294582"/><trkpt lat="43.7403706" lon="7.4294295"/><trkpt lat="43.74041" lon="7.4293974"/><trkpt lat="43.7404343" lon="7.4293751"/><trkpt lat="43.7404592" lon="7.4293493"/><trkpt lat="43.7404953" lon="7.4293144"/><trkpt lat="43.7405536" lon="7.4292581"/><trkpt lat="43.7405914" lon="7.4292216"/><trkpt lat="43.7406247" lon="7.4291921"/><trkpt lat="43.7406539" lon="7.4291697"/><trkpt lat="43.7406785" lon="7.429153"/><trkpt lat="43.7407055" lon="7.4291401"/><trkpt lat="43.740726" lon="7.4291322"/><trkpt lat="43.7407531" lon="7.4291256"/><trkpt lat="43.7408062" lon="7.4291201"/><trkpt lat="43.7408605" lon="7.4291189"/><trkpt lat="43.7409035" lon="7.4291154"/><trkpt lat="43.7409413" lon="7.4291054"/><trkpt lat="43.740968" lon="7.4290907"/><trkpt lat="43.7409906" lon="7.4290766"/><trkpt lat="43.7410131" lon="7.4290554"/><trkpt lat="43.7410395" lon="7.4290259"/><trkpt lat="43.7410615" lon="7.4289931"/><trkpt lat="43.7410815" lon="7.428956"/><trkpt lat="43.7410938" lon="7.4289249"/><trkpt lat="43.7411027" lon="7.4288861"/><trkpt lat="43.7411083" lon="7.4288526"/><trkpt lat="43.7411123" lon="7.4288124"/></trkseg></trk><trk><name>way/4230007</name><desc></desc><link href="http://osm.org/browse/way/4230007"/><trkseg><trkpt lat="43.7409524" lon="7.4295273"/><trkpt lat="43.7409117" lon="7.4293988"/><trkpt lat="43.7408998" lon="7.4293699"/><trkpt lat="43.7408882" lon="7.4293503"/><trkpt lat="43.7408747" lon="7.4293349"/><trkpt lat="43.7408554" lon="7.4293172"/><trkpt lat="43.7408308" lon="7.4293045"/><trkpt lat="43.7408062" lon="7.4292963"/><trkpt lat="43.7407862" lon="7.4292952"/><trkpt lat="43.7407667" lon="7.4292976"/><trkpt lat="43.7407462" lon="7.429306"/><trkpt lat="43.7407264" lon="7.4293168"/><trkpt lat="43.7407043" lon="7.429333"/><trkpt lat="43.7406819" lon="7.4293552"/><trkpt lat="43.7406434" lon="7.4293951"/><trkpt lat="43.7405242" lon="7.429517"/><trkpt lat="43.7404844" lon="7.4295599"/><trkpt lat="43.7404501" lon="7.4296048"/><trkpt lat="43.7404191" lon="7.4296518"/><trkpt lat="43.7403844" lon="7.429696"/><trkpt lat="43.7403628" lon="7.4297226"/><trkpt lat="43.7403489" lon="7.4297349"/></trkseg></trk><trk><name>way/1148675745</name><desc></desc><link href="http://osm.org/browse/way/1148675745"/><trkseg><trkpt lat="43.7409524" lon="7.4295273"/><trkpt lat="43.7409697" lon="7.4296425"/><trkpt lat="43.7409778" lon="7.4296871"/><trkpt lat="43.7410018" lon="7.4297697"/></trkseg></trk><trk><name>way/1470365906</name><desc></desc><link href="http://osm.org/browse/way/1470365906"/><trkseg><trkpt lat="43.7410018" lon="7.4297697"/><trkpt lat="43.7410436" lon="7.4299069"/><trkpt lat="43.7410664" lon="7.4300008"/><trkpt lat="43.7410731" lon="7.4300319"/></trkseg></trk><trk><name>way/1470365907</name><desc></desc><link href="http://osm.org/browse/way/1470365907"/><trkseg><trkpt lat="43.7410731" lon="7.4300319"/><trkpt lat="43.7410846" lon="7.4300892"/><trkpt lat="43.7410879" lon="7.4301307"/><trkpt lat="43.7410904" lon="7.4301723"/><trkpt lat="43.7410891" lon="7.4302209"/><trkpt lat="43.7410875" lon="7.4302528"/></trkseg></trk><trk><name>way/1148199871</name><desc></desc><link href="http://osm.org/browse/way/1148199871"/><trkseg><trkpt lat="43.7410875" lon="7.4302528"/><trkpt lat="43.741081" lon="7.4302842"/><trkpt lat="43.7410691" lon="7.4303121"/><trkpt lat="43.74105" lon="7.4303397"/><trkpt lat="43.7410265" lon="7.4303555"/><trkpt lat="43.7409984" lon="7.4303633"/><trkpt lat="43.7409707" lon="7.4303639"/><trkpt lat="43.7408882" lon="7.4303598"/></trkseg></trk><trk><name>way/41929969</name><desc></desc><link href="http://osm.org/browse/way/41929969"/><trkseg><trkpt lat="43.7403619" lon="7.4303262"/><trkpt lat="43.7408882" lon="7.4303598"/></trkseg></trk><trk><name>way/4230891</name><desc></desc><link href="http://osm.org/browse/way/4230891"/><trkseg><trkpt lat="43.737802" lon="7.4280368"/><trkpt lat="43.7378538" lon="7.4281757"/><trkpt lat="43.7379094" lon="7.4283118"/><trkpt lat="43.7379687" lon="7.4284448"/><trkpt lat="43.7380316" lon="7.4285746"/><trkpt lat="43.7380981" lon="7.428701"/><trkpt lat="43.7381679" lon="7.4288239"/><trkpt lat="43.7382411" lon="7.4289429"/><trkpt lat="43.7383175" lon="7.429058"/><trkpt lat="43.7384192" lon="7.4291984"/><trkpt lat="43.7385256" lon="7.4293318"/><trkpt lat="43.7386365" lon="7.4294579"/><trkpt lat="43.7387517" lon="7.4295765"/><trkpt lat="43.738871" lon="7.4296871"/><trkpt lat="43.7389939" lon="7.4297897"/><trkpt lat="43.7391203" lon="7.4298839"/><trkpt lat="43.7392499" lon="7.4299695"/><trkpt lat="43.7393823" lon="7.4300464"/><trkpt lat="43.7395172" lon="7.4301143"/><trkpt lat="43.7396543" lon="7.4301731"/><trkpt lat="43.7397934" lon="7.4302226"/><trkpt lat="43.739934" lon="7.4302628"/><trkpt lat="43.7400758" lon="7.4302935"/><trkpt lat="43.7402186" lon="7.4303146"/><trkpt lat="43.7402961" lon="7.4303209"/><trkpt lat="43.7403619" lon="7.4303262"/></trkseg></trk><trk><name>way/1230247123</name><desc></desc><link href="http://osm.org/browse/way/1230247123"/><trkseg><trkpt lat="43.7377783" lon="7.4279727"/><trkpt lat="43.737802" lon="7.4280368"/></trkseg></trk><trk><name>way/160004393</name><desc></desc><link href="http://osm.org/browse/way/160004393"/><trkseg><trkpt lat="43.7375321" lon="7.4273074"/><trkpt lat="43.7376874" lon="7.4277242"/><trkpt lat="43.7377783" lon="7.4279727"/></trkseg></trk><trk><name>way/1081401617</name><desc></desc><link href="http://osm.org/browse/way/1081401617"/><trkseg><trkpt lat="43.7323832" lon="7.4229757"/><trkpt lat="43.7323713" lon="7.4228796"/><trkpt lat="43.732366" lon="7.4228226"/><trkpt lat="43.7323624" lon="7.4227671"/><trkpt lat="43.7323615" lon="7.4227029"/><trkpt lat="43.7323636" lon="7.4226391"/><trkpt lat="43.732365" lon="7.422601"/><trkpt lat="43.7323713" lon="7.4225613"/><trkpt lat="43.732379" lon="7.4225331"/><trkpt lat="43.7323875" lon="7.4225096"/><trkpt lat="43.7324078" lon="7.4224736"/><trkpt lat="43.7324268" lon="7.4224491"/><trkpt lat="43.7324468" lon="7.4224303"/><trkpt lat="43.7324782" lon="7.4224166"/></trkseg></trk><trk><name>way/168681959</name><desc></desc><link href="http://osm.org/browse/way/168681959"/><trkseg><trkpt lat="43.7324782" lon="7.4224166"/><trkpt lat="43.7325169" lon="7.422414"/><trkpt lat="43.7325554" lon="7.4224071"/><trkpt lat="43.7325924" lon="7.4223963"/><trkpt lat="43.7326287" lon="7.4223814"/><trkpt lat="43.7326641" lon="7.4223626"/><trkpt lat="43.7326982" lon="7.42234"/><trkpt lat="43.732731" lon="7.4223137"/><trkpt lat="43.7327621" lon="7.422284"/></trkseg></trk><trk><name>way/60767229</name><desc></desc><link href="http://osm.org/browse/way/60767229"/><trkseg><trkpt lat="43.7327621" lon="7.422284"/><trkpt lat="43.7328624" lon="7.4221705"/></trkseg></trk><trk><name>way/4226740</name><desc></desc><link href="http://osm.org/browse/way/4226740"/><trkseg><trkpt lat="43.7328624" lon="7.4221705"/><trkpt lat="43.7328884" lon="7.4221442"/><trkpt lat="43.7329405" lon="7.4220977"/><trkpt lat="43.7329826" lon="7.4220619"/><trkpt lat="43.7330228" lon="7.4220273"/><trkpt lat="43.7331331" lon="7.4219303"/><trkpt lat="43.7332095" lon="7.4218736"/></trkseg></trk><trk><name>way/1019174508</name><desc></desc><link href="http://osm.org/browse/way/1019174508"/><trkseg><trkpt lat="43.7332095" lon="7.4218736"/><trkpt lat="43.7333004" lon="7.421812"/><trkpt lat="43.7333746" lon="7.42178"/><trkpt lat="43.7334401" lon="7.421753"/><trkpt lat="43.7335478" lon="7.4217145"/><trkpt lat="43.7335584" lon="7.4217098"/><trkpt lat="43.7335705" lon="7.421705"/><trkpt lat="43.7336006" lon="7.421693"/><trkpt lat="43.7337308" lon="7.4216373"/><trkpt lat="43.7338388" lon="7.4215941"/><trkpt lat="43.7339007" lon="7.421569"/><trkpt lat="43.7339309" lon="7.4215567"/><trkpt lat="43.7339825" lon="7.4215368"/><trkpt lat="43.7340015" lon="7.4215295"/><trkpt lat="43.7341258" lon="7.4214815"/><trkpt lat="43.7342658" lon="7.4214304"/><trkpt lat="43.7343333" lon="7.4214102"/><trkpt lat="43.7343601" lon="7.4214022"/><trkpt lat="43.7343821" lon="7.4213956"/><trkpt lat="43.734428" lon="7.4213847"/></trkseg></trk><trk><name>way/166399479</name><desc></desc><link href="http://osm.org/browse/way/166399479"/><trkseg><trkpt lat="43.734428" lon="7.4213847"/><trkpt lat="43.7344485" lon="7.4213798"/><trkpt lat="43.7344691" lon="7.4213748"/><trkpt lat="43.7344802" lon="7.4213722"/><trkpt lat="43.7345446" lon="7.421358"/><trkpt lat="43.7346006" lon="7.4213456"/><trkpt lat="43.7346566" lon="7.4213333"/><trkpt lat="43.7346786" lon="7.4213284"/><trkpt lat="43.7347276" lon="7.4213176"/><trkpt lat="43.7347806" lon="7.4213059"/><trkpt lat="43.734838" lon="7.4212964"/><trkpt lat="43.7349149" lon="7.4212837"/><trkpt lat="43.7349832" lon="7.4212724"/><trkpt lat="43.7350269" lon="7.4212652"/><trkpt lat="43.7352207" lon="7.421245"/><trkpt lat="43.7352623" lon="7.4212403"/><trkpt lat="43.735349" lon="7.4212306"/><trkpt lat="43.735402" lon="7.4212229"/><trkpt lat="43.7354374" lon="7.4212204"/><trkpt lat="43.7355084" lon="7.4212154"/><trkpt lat="43.7355796" lon="7.4212103"/><trkpt lat="43.7356156" lon="7.4212077"/><trkpt lat="43.7356754" lon="7.4212091"/><trkpt lat="43.7357741" lon="7.4212113"/><trkpt lat="43.7358229" lon="7.4212159"/><trkpt lat="43.7359846" lon="7.4212313"/><trkpt lat="43.7359964" lon="7.4212324"/><trkpt lat="43.7360672" lon="7.4212466"/><trkpt lat="43.7361473" lon="7.4212611"/><trkpt lat="43.7362286" lon="7.4212846"/><trkpt lat="43.736292" lon="7.4213049"/><trkpt lat="43.7363543" lon="7.4213277"/></trkseg></trk><trk><name>way/1453878835</name><desc></desc><link href="http://osm.org/browse/way/1453878835"/><trkseg><trkpt lat="43.7363543" lon="7.4213277"/><trkpt lat="43.7364622" lon="7.4213749"/><trkpt lat="43.7365583" lon="7.4214168"/></trkseg></trk><trk><name>way/1081401616</name><desc></desc><link href="http://osm.org/browse/way/1081401616"/><trkseg><trkpt lat="43.7365583" lon="7.4214168"/><trkpt lat="43.7366029" lon="7.4214329"/><trkpt lat="43.7366488" lon="7.4214431"/><trkpt lat="43.7367209" lon="7.4214561"/><trkpt lat="43.7368491" lon="7.421484"/><trkpt lat="43.7368785" lon="7.4214935"/><trkpt lat="43.7369019" lon="7.4215052"/><trkpt lat="43.7369335" lon="7.4215295"/><trkpt lat="43.7369566" lon="7.4215636"/><trkpt lat="43.7369691" lon="7.4215997"/><trkpt lat="43.7369767" lon="7.4216425"/><trkpt lat="43.7370216" lon="7.4221175"/></trkseg></trk><trk><name>way/157719644</name><desc></desc><link href="http://osm.org/browse/way/157719644"/><trkseg><trkpt lat="43.7370216" lon="7.4221175"/><trkpt lat="43.7370662" lon="7.422551"/><trkpt lat="43.7370944" lon="7.4227661"/><trkpt lat="43.737098" lon="7.4227884"/><trkpt lat="43.7371175" lon="7.4229093"/><trkpt lat="43.7371615" lon="7.4231363"/><trkpt lat="43.7372395" lon="7.423497"/><trkpt lat="43.7372639" lon="7.4236087"/><trkpt lat="43.7372681" lon="7.4236281"/><trkpt lat="43.7372923" lon="7.4237413"/><trkpt lat="43.7373476" lon="7.4240136"/></trkseg></trk><trk><name>way/254596486</name><desc></desc><link href="http://osm.org/browse/way/254596486"/><trkseg><trkpt lat="43.7373476" lon="7.4240136"/><trkpt lat="43.7373825" lon="7.4241961"/><trkpt lat="43.7374014" lon="7.4243568"/><trkpt lat="43.7374193" lon="7.4245725"/><trkpt lat="43.7374283" lon="7.4246881"/><trkpt lat="43.7374405" lon="7.4248685"/><trkpt lat="43.7374518" lon="7.4249411"/><trkpt lat="43.7374699" lon="7.4250128"/><trkpt lat="43.7374832" lon="7.425065"/><trkpt lat="43.7375256" lon="7.4251862"/><trkpt lat="43.7376564" lon="7.4255617"/><trkpt lat="43.7376877" lon="7.4256495"/><trkpt lat="43.7377195" lon="7.4257385"/><trkpt lat="43.7377526" lon="7.4258405"/><trkpt lat="43.7377731" lon="7.4259193"/><trkpt lat="43.7377956" lon="7.4260179"/><trkpt lat="43.7378333" lon="7.4262217"/><trkpt lat="43.7378674" lon="7.4264312"/></trkseg></trk><trk><name>way/4229308</name><desc></desc><link href="http://osm.org/browse/way/4229308"/><trkseg><trkpt lat="43.7378674" lon="7.4264312"/><trkpt lat="43.7378925" lon="7.4266758"/><trkpt lat="43.7379155" lon="7.4269003"/></trkseg></trk><trk><name>way/1388331347</name><desc></desc><link href="http://osm.org/browse/way/1388331347"/><trkseg><trkpt lat="43.7365583" lon="7.4214168"/><trkpt lat="43.7367728" lon="7.4215948"/><trkpt lat="43.7368079" lon="7.4216263"/><trkpt lat="43.7368434" lon="7.4216622"/><trkpt lat="43.7368842" lon="7.4217057"/><trkpt lat="43.7369048" lon="7.4217295"/><trkpt lat="43.7369175" lon="7.4217464"/><trkpt lat="43.7369391" lon="7.4217787"/><trkpt lat="43.7369589" lon="7.4218183"/><trkpt lat="43.7369728" lon="7.4218587"/><trkpt lat="43.7370216" lon="7.4221175"/></trkseg></trk></gpx>